*******************************************************************************
 Revised: Sep 10, 2019            Desdemona / (Uranus)                      710

 SATELLITE PHYSICAL PROPERTIES:
  Radius (km)           = 29 +- 3           Density (g cm^-3)   =
  Mass (10^20 kg )      =                   Geometric Albedo    =   0.07 
                                            V(1,0)              =  +9.8

 SATELLITE ORBITAL DATA:
  Semi-major axis, a (km) =  62.659 (10^3)  Orbital period      =  0.473651 d
  Eccentricity, e         =   0.000         Rotational period   = 
  Inclination, i  (deg)   =   0.2
*******************************************************************************
 
 
*******************************************************************************
Ephemeris / WWW_USER Fri Jun 19 18:49:04 2020 Pasadena, USA      / Horizons
*******************************************************************************
Target body name: Desdemona (710)                 {source: ura115}
Center body name: Solar System Barycenter (0)     {source: DE431mx}
Center-site name: BODY CENTER
*******************************************************************************
Start time      : A.D. 1982-Jan-31 00:00:00.0000 TDB
Stop  time      : A.D. 2052-Mar-04 00:00:00.0000 TDB
Step-size       : 7200 minutes
*******************************************************************************
Center geodetic : 0.00000000,0.00000000,0.0000000 {E-lon(deg),Lat(deg),Alt(km)}
Center cylindric: 0.00000000,0.00000000,0.0000000 {E-lon(deg),Dxy(km),Dz(km)}
Center radii    : (undefined)                                                  
Output units    : AU-D
Output type     : GEOMETRIC cartesian states
Output format   : 2 (position and velocity)
Reference frame : Ecliptic of J2000.0
*******************************************************************************
            JDTDB,            Calendar Date (TDB),        delta-T,                      X,                      Y,                      Z,                     VX,                     VY,                     VZ,
******************************************************************************************************************************************************************************************************************
$$SOE
2455980.500000000, A.D. 2012-Feb-23 00:00:00.0000,      66.185253,  2.002010557735396E+01,  1.403507938151587E+00, -2.537481141574963E-01,  5.049219713530148E-03,  2.459532073769169E-03, -7.254238071942137E-04,
2455985.500000000, A.D. 2012-Feb-28 00:00:00.0000,      66.185343,  2.001830733698845E+01,  1.422158416006878E+00, -2.544359411173424E-01, -5.023701863629324E-03,  5.138501471724571E-03,  2.603542940831107E-03,
2455990.500000000, A.D. 2012-Mar-04 00:00:00.0000,      66.185421,  2.001727690155602E+01,  1.440833287733538E+00, -2.537044870076343E-01,  3.175839035847600E-03,  2.398107639885803E-03, -4.090570450685710E-03,
2455995.500000000, A.D. 2012-Mar-09 00:00:00.0000,      66.185486,  2.001501320886502E+01,  1.459624474420258E+00, -2.540420715222969E-01, -2.147248307409760E-03,  4.859096005098629E-03,  5.144246469329648E-03,
2456000.500000000, A.D. 2012-Mar-14 00:00:00.0000,      66.185541,  2.001422433821126E+01,  1.478167990616405E+00, -2.537920876985140E-01, -3.705144034953126E-04,  2.981714340201899E-03, -5.483214137794161E-03,
2456005.500000000, A.D. 2012-Mar-19 00:00:00.0000,      66.185586,  2.001183116359180E+01,  1.497054534784135E+00, -2.535745269937086E-01,  1.609986512631770E-03,  4.040177974498197E-03,  5.220032157701012E-03,
2456010.500000000, A.D. 2012-Mar-24 00:00:00.0000,      66.185621,  2.001090179329659E+01,  1.515540018505418E+00, -2.538830750262870E-01, -3.892535636689213E-03,  3.929828092238795E-03, -4.235050992959709E-03,
2456015.500000000, A.D. 2012-Mar-29 00:00:00.0000,      66.185642,  2.000875946302838E+01,  1.534429515346004E+00, -2.531711155996242E-01,  4.437200632078007E-03,  3.076281226208639E-03,  2.795444320663608E-03,
2456020.500000000, A.D. 2012-Apr-03 00:00:00.0000,      66.185651,  2.000735798314150E+01,  1.552956778075439E+00, -2.538469346045625E-01, -5.703235695303739E-03,  4.786371888428062E-03, -9.435732736549285E-04,
2456025.500000000, A.D. 2012-Apr-08 00:00:00.0000,      66.185645,  2.000570829968751E+01,  1.571754125550053E+00, -2.529387988329541E-01,  4.972817488714778E-03,  2.431515894855230E-03, -9.621797091840200E-04,
2456030.500000000, A.D. 2012-Apr-13 00:00:00.0000,      66.185629,  2.000371245901144E+01,  1.590401544794459E+00, -2.536135574700600E-01, -4.934796956627669E-03,  5.138682436723721E-03,  2.812115339805645E-03,
2456035.500000000, A.D. 2012-Apr-18 00:00:00.0000,      66.185602,  2.000254302370604E+01,  1.609054557041323E+00, -2.529020189748656E-01,  2.958427912303854E-03,  2.415537528055869E-03, -4.246798364623155E-03,
2456040.500000000, A.D. 2012-Apr-23 00:00:00.0000,      66.185564,  2.000009798263982E+01,  1.627841463109961E+00, -2.532071509243607E-01, -1.957339647027293E-03,  4.816337467320273E-03,  5.227099630144610E-03,
2456045.500000000, A.D. 2012-Apr-28 00:00:00.0000,      66.185514,  1.999914888291803E+01,  1.646365895271802E+00, -2.529901703939880E-01, -6.401405138108555E-04,  3.034867579030069E-03, -5.482822050842348E-03,
2456050.500000000, A.D. 2012-May-03 00:00:00.0000,      66.185452,  1.999659785209826E+01,  1.665242998356343E+00, -2.527351395848791E-01,  1.794758511886600E-03,  3.974144136467243E-03,  5.138154812437407E-03,
2456055.500000000, A.D. 2012-May-08 00:00:00.0000,      66.185378,  1.999548533453005E+01,  1.683715179764539E+00, -2.530725874456153E-01, -4.099764344433837E-03,  3.991065782317877E-03, -4.078176970674933E-03,
2456060.500000000, A.D. 2012-May-13 00:00:00.0000,      66.185295,  1.999320518212495E+01,  1.702588270536798E+00, -2.523358938474526E-01,  4.512779047084340E-03,  3.017914798461154E-03,  2.587532114345779E-03,
2456065.500000000, A.D. 2012-May-18 00:00:00.0000,      66.185205,  1.999160576038803E+01,  1.721108301781660E+00, -2.530210879985019E-01, -5.764296434474138E-03,  4.824259789598607E-03, -7.059486337994505E-04,
2456070.500000000, A.D. 2012-May-23 00:00:00.0000,      66.185106,  1.998982602874491E+01,  1.739883685460390E+00, -2.521118228534381E-01,  4.886844418523372E-03,  2.407970506913895E-03, -1.197071245583483E-03,
2456075.500000000, A.D. 2012-May-28 00:00:00.0000,      66.185000,  1.998763279348203E+01,  1.758526939050277E+00, -2.527713556129239E-01, -4.837118962968612E-03,  5.133621810086485E-03,  3.016143594297537E-03,
2456080.500000000, A.D. 2012-Jun-02 00:00:00.0000,      66.184884,  1.998632437351560E+01,  1.777156638204695E+00, -2.520812827373686E-01,  2.735574056156181E-03,  2.436962837819883E-03, -4.395503255940446E-03,
2456085.500000000, A.D. 2012-Jun-07 00:00:00.0000,      66.184761,  1.998369850529003E+01,  1.795937600955349E+00, -2.523533463191633E-01, -1.764382191532816E-03,  4.769963253756915E-03,  5.300132422991248E-03,
2456090.500000000, A.D. 2012-Jun-12 00:00:00.0000,      66.184634,  1.998258819905181E+01,  1.814442161820412E+00, -2.521691643499644E-01, -9.089563184280655E-04,  3.089324559035267E-03, -5.472426294439234E-03,
2456095.500000000, A.D. 2012-Jun-17 00:00:00.0000,      66.184504,  1.997988110255674E+01,  1.833307592172616E+00, -2.518774185881663E-01,  1.975360488047163E-03,  3.907960076536145E-03,  5.045992858417745E-03,
2456100.500000000, A.D. 2012-Jun-22 00:00:00.0000,      66.184371,  1.997858347179688E+01,  1.851765970233522E+00, -2.522429208727941E-01, -4.300564612742898E-03,  4.050211477262077E-03, -3.913185209539805E-03,
2456105.500000000, A.D. 2012-Jun-27 00:00:00.0000,      66.184235,  1.997616733762971E+01,  1.870620555532749E+00, -2.514821970069601E-01,  4.579423982295490E-03,  2.962676718131575E-03,  2.374355075266202E-03,
2456110.500000000, A.D. 2012-Jul-02 00:00:00.0000,      67.184096,  1.997436920563197E+01,  1.889132341342117E+00, -2.521760958693197E-01, -5.815986244883468E-03,  4.857654915611793E-03, -4.662746685781836E-04,
2456115.500000000, A.D. 2012-Jul-07 00:00:00.0000,      67.183955,  1.997245924369911E+01,  1.907884347399027E+00, -2.512666694992297E-01,  4.791450463310547E-03,  2.388873822813860E-03, -1.429461817170682E-03,
2456120.500000000, A.D. 2012-Jul-12 00:00:00.0000,      67.183816,  1.997006987441360E+01,  1.926521800129923E+00, -2.519095353805074E-01, -4.730980624114191E-03,  5.123922020472517E-03,  3.214930990552001E-03,
2456125.500000000, A.D. 2012-Jul-17 00:00:00.0000,      67.183679,  1.996862095476510E+01,  1.945127195536078E+00, -2.512427079516887E-01,  2.507188749510310E-03,  2.461466805251971E-03, -4.535673261880145E-03,
2456130.500000000, A.D. 2012-Jul-22 00:00:00.0000,      67.183546,  1.996581591566425E+01,  1.963900369922389E+00, -2.514799748483455E-01, -1.568102940894013E-03,  4.721213480838415E-03,  5.363031355017451E-03,
2456135.500000000, A.D. 2012-Jul-27 00:00:00.0000,      67.183414,  1.996454335199156E+01,  1.982384123479473E+00, -2.513296604300392E-01, -1.176922276762229E-03,  3.143712078485594E-03, -5.451897539694613E-03,
2456140.500000000, A.D. 2012-Aug-01 00:00:00.0000,      67.183286,  1.996168113054987E+01,  2.001235992624822E+00, -2.510013446355007E-01,  2.151788565864354E-03,  3.842852098278303E-03,  4.943800418888930E-03,
2456145.500000000, A.D. 2012-Aug-06 00:00:00.0000,      67.183162,  1.996019766226008E+01,  2.019679724326155E+00, -2.513935808845277E-01, -4.494484525548115E-03,  4.106288135826757E-03, -3.740671070491578E-03,
2456150.500000000, A.D. 2012-Aug-11 00:00:00.0000,      67.183045,  1.995764658047855E+01,  2.038513870788819E+00, -2.506109478728007E-01,  4.636549220570465E-03,  2.911009522240873E-03,  2.156244711463374E-03,
2456155.500000000, A.D. 2012-Aug-16 00:00:00.0000,      67.182936,  1.995564886677730E+01,  2.057016444171178E+00, -2.513112698860144E-01, -5.857963150793456E-03,  4.886725201672608E-03, -2.250043138285932E-04,
